{"type": "FeatureCollection", "features": [ {"type": "Feature", "properties": {"norad_id": 66629, "name": "STARLINK-35956", "group": "last-30-days", "lat": -16.36551595257388, "lon": -1.4552499474128622, "alt_km": 421.59360674000345, "timestamp": "2025-12-17T04:57:43.203317+00:00", "meta": {"OBJECT_NAME": "STARLINK-35956", "OBJECT_ID": "2025-271N", "EPOCH": "2025-12-16T21:54:27.071712", "MEAN_MOTION": 15.49330698, "ECCENTRICITY": 6.346e-05, "INCLINATION": 53.1587, "RA_OF_ASC_NODE": 167.2314, "ARG_OF_PERICENTER": 73.5778, "MEAN_ANOMALY": 286.5301, "EPHEMERIS_TYPE": 0, "CLASSIFICATION_TYPE": "U", "NORAD_CAT_ID": 66629, "ELEMENT_SET_NO": 999, "REV_AT_EPOCH": 485, "BSTAR": 0.0010048732, "MEAN_MOTION_DOT": 0.00055882, "MEAN_MOTION_DDOT": 0}, "tle": {"line1": "1 66629U 25271N   25350.91281333  .00055882  00000+0  10049-2 0  9994", "line2": "2 66629  53.1587 167.2314 0000634  73.5778 286.5301 15.49330698  4854"}}, "geometry": {"type": "Point", "coordinates": [-1.4552499474128622, -16.36551595257388]}}, {"type": "Feature", "properties": {"norad_id": 66630, "name": "STARLINK-35949", "group": "last-30-days", "lat": -17.85625785307874, "lon": -0.20332048960199564, "alt_km": 421.9237630845564, "timestamp": "2025-12-17T04:57:43.203326+00:00", "meta": {"OBJECT_NAME": "STARLINK-35949", "OBJECT_ID": "2025-271P", "EPOCH": "2025-12-16T21:53:57.477984", "MEAN_MOTION": 15.49329786, "ECCENTRICITY": 9.765e-05, "INCLINATION": 53.1592, "RA_OF_ASC_NODE": 167.2275, "ARG_OF_PERICENTER": 70.1422, "MEAN_ANOMALY": 289.9692, "EPHEMERIS_TYPE": 0, "CLASSIFICATION_TYPE": "U", "NORAD_CAT_ID": 66630, "ELEMENT_SET_NO": 999, "REV_AT_EPOCH": 485, "BSTAR": 0.00096233157, "MEAN_MOTION_DOT": 0.00053479, "MEAN_MOTION_DDOT": 0}, "tle": {"line1": "1 66630U 25271P   25350.91247081  .00053479  00000+0  96233-3 0  9998", "line2": "2 66630  53.1592 167.2275 0000976  70.1422 289.9692 15.49329786  4852"}}, "geometry": {"type": "Point", "coordinates": [-0.20332048960199564, -17.85625785307874]}}, {"type": "Feature", "properties": {"norad_id": 66631, "name": "STARLINK-35965", "group": "last-30-days", "lat": -19.33925490993743, "lon": 1.0735643623515538, "alt_km": 422.15039760328455, "timestamp": "2025-12-17T04:57:43.203335+00:00", "meta": {"OBJECT_NAME": "STARLINK-35965", "OBJECT_ID": "2025-271Q", "EPOCH": "2025-12-16T21:53:27.793536", "MEAN_MOTION": 15.49330766, "ECCENTRICITY": 9.106e-05, "INCLINATION": 53.1589, "RA_OF_ASC_NODE": 167.2266, "ARG_OF_PERICENTER": 47.4404, "MEAN_ANOMALY": 312.6682, "EPHEMERIS_TYPE": 0, "CLASSIFICATION_TYPE": "U", "NORAD_CAT_ID": 66631, "ELEMENT_SET_NO": 999, "REV_AT_EPOCH": 485, "BSTAR": 0.0012603273, "MEAN_MOTION_DOT": 0.00070333, "MEAN_MOTION_DDOT": 0}, "tle": {"line1": "1 66631U 25271Q   25350.91212724  .00070333  00000+0  12603-2 0  9991", "line2": "2 66631  53.1589 167.2266 0000910  47.4404 312.6682 15.49330766  4857"}}, "geometry": {"type": "Point", "coordinates": [1.0735643623515538, -19.33925490993743]}}, {"type": "Feature", "properties": {"norad_id": 66632, "name": "STARLINK-35973", "group": "last-30-days", "lat": 42.070619317814135, "lon": -56.610440440111304, "alt_km": 440.7402262256919, "timestamp": "2025-12-17T04:57:43.203345+00:00", "meta": {"OBJECT_NAME": "STARLINK-35973", "OBJECT_ID": "2025-271R", "EPOCH": "2025-12-16T22:00:03.000096", "MEAN_MOTION": 15.39586252, "ECCENTRICITY": 0.00015483, "INCLINATION": 53.1585, "RA_OF_ASC_NODE": 167.3476, "ARG_OF_PERICENTER": 93.4654, "MEAN_ANOMALY": 221.0779, "EPHEMERIS_TYPE": 0, "CLASSIFICATION_TYPE": "U", "NORAD_CAT_ID": 66632, "ELEMENT_SET_NO": 999, "REV_AT_EPOCH": 485, "BSTAR": 0.0016446237, "MEAN_MOTION_DOT": 0.00065881, "MEAN_MOTION_DDOT": 0}, "tle": {"line1": "1 66632U 25271R   25350.91670139  .00065881  00000+0  16446-2 0  9991", "line2": "2 66632  53.1585 167.3476 0001548  93.4654 221.0779 15.39586252  4856"}}, "geometry": {"type": "Point", "coordinates": [-56.610440440111304, 42.070619317814135]}}, {"type": "Feature", "properties": {"norad_id": 66633, "name": "STARLINK-35948", "group": "last-30-days", "lat": 40.97240073396353, "lon": -54.650326151087654, "alt_km": 441.2384999655269, "timestamp": "2025-12-17T04:57:43.203355+00:00", "meta": {"OBJECT_NAME": "STARLINK-35948", "OBJECT_ID": "2025-271S", "EPOCH": "2025-12-16T22:00:03.000096", "MEAN_MOTION": 15.39590055, "ECCENTRICITY": 0.00011011, "INCLINATION": 53.1585, "RA_OF_ASC_NODE": 167.3429, "ARG_OF_PERICENTER": 83.267, "MEAN_ANOMALY": 233.1028, "EPHEMERIS_TYPE": 0, "CLASSIFICATION_TYPE": "U", "NORAD_CAT_ID": 66633, "ELEMENT_SET_NO": 999, "REV_AT_EPOCH": 491, "BSTAR": 0.0018896428, "MEAN_MOTION_DOT": 0.00075865, "MEAN_MOTION_DDOT": 0}, "tle": {"line1": "1 66633U 25271S   25350.91670139  .00075865  00000+0  18896-2 0  9996", "line2": "2 66633  53.1585 167.3429 0001101  83.2670 233.1028 15.39590055  4919"}}, "geometry": {"type": "Point", "coordinates": [-54.650326151087654, 40.97240073396353]}}, {"type": "Feature", "properties": {"norad_id": 66634, "name": "STARLINK-35967", "group": "last-30-days", "lat": 23.054024875832177, "lon": -32.683511140120885, "alt_km": 444.81279442100094, "timestamp": "2025-12-17T04:57:43.203392+00:00", "meta": {"OBJECT_NAME": "STARLINK-35967", "OBJECT_ID": "2025-271T", "EPOCH": "2025-12-16T22:00:03.000096", "MEAN_MOTION": 15.39562481, "ECCENTRICITY": 9.021e-05, "INCLINATION": 53.1596, "RA_OF_ASC_NODE": 167.2905, "ARG_OF_PERICENTER": 54.9893, "MEAN_ANOMALY": 287.1124, "EPHEMERIS_TYPE": 0, "CLASSIFICATION_TYPE": "U", "NORAD_CAT_ID": 66634, "ELEMENT_SET_NO": 999, "REV_AT_EPOCH": 484, "BSTAR": 0.0017488924, "MEAN_MOTION_DOT": 0.00070067, "MEAN_MOTION_DDOT": 0}, "tle": {"line1": "1 66634U 25271T   25350.91670139  .00070067  00000+0  17489-2 0  9993", "line2": "2 66634  53.1596 167.2905 0000902  54.9893 287.1124 15.39562481  4840"}}, "geometry": {"type": "Point", "coordinates": [-32.683511140120885, 23.054024875832177]}}, {"type": "Feature", "properties": {"norad_id": 66635, "name": "STARLINK-35955", "group": "last-30-days", "lat": -13.674795505948618, "lon": -3.6577469543354035, "alt_km": 439.3755781431728, "timestamp": "2025-12-17T04:57:43.203403+00:00", "meta": {"OBJECT_NAME": "STARLINK-35955", "OBJECT_ID": "2025-271U", "EPOCH": "2025-12-16T22:00:03.000096", "MEAN_MOTION": 15.44506384, "ECCENTRICITY": 7.91e-05, "INCLINATION": 53.1597, "RA_OF_ASC_NODE": 167.2077, "ARG_OF_PERICENTER": 90.0402, "MEAN_ANOMALY": 294.0687, "EPHEMERIS_TYPE": 0, "CLASSIFICATION_TYPE": "U", "NORAD_CAT_ID": 66635, "ELEMENT_SET_NO": 999, "REV_AT_EPOCH": 491, "BSTAR": -0.048542963, "MEAN_MOTION_DOT": -0.02034754, "MEAN_MOTION_DDOT": 0}, "tle": {"line1": "1 66635U 25271U   25350.91670139 -.02034754  00000+0 -48543-1 0  9995", "line2": "2 66635  53.1597 167.2077 0000791  90.0402 294.0687 15.44506384  4910"}}, "geometry": {"type": "Point", "coordinates": [-3.6577469543354035, -13.674795505948618]}}, {"type": "Feature", "properties": {"norad_id": 66636, "name": "STARLINK-35968", "group": "last-30-days", "lat": 2.746507807901968, "lon": -16.188785488898024, "alt_km": 446.9973875407104, "timestamp": "2025-12-17T04:57:43.203417+00:00", "meta": {"OBJECT_NAME": "STARLINK-35968", "OBJECT_ID": "2025-271V", "EPOCH": "2025-12-16T22:00:03.000096", "MEAN_MOTION": 15.40759422, "ECCENTRICITY": 9.41e-05, "INCLINATION": 53.1593, "RA_OF_ASC_NODE": 167.2408, "ARG_OF_PERICENTER": 111.505, "MEAN_ANOMALY": 255.7458, "EPHEMERIS_TYPE": 0, "CLASSIFICATION_TYPE": "U", "NORAD_CAT_ID": 66636, "ELEMENT_SET_NO": 999, "REV_AT_EPOCH": 491, "BSTAR": -0.042384455, "MEAN_MOTION_DOT": -0.01581442, "MEAN_MOTION_DDOT": 0}, "tle": {"line1": "1 66636U 25271V   25350.91670139 -.01581442  00000+0 -42384-1 0  9993", "line2": "2 66636  53.1593 167.2408 0000941 111.5050 255.7458 15.40759422  4919"}}, "geometry": {"type": "Point", "coordinates": [-16.188785488898024, 2.746507807901968]}}, {"type": "Feature", "properties": {"norad_id": 66637, "name": "STARLINK-35953", "group": "last-30-days", "lat": -25.326759033883473, "lon": 6.582148923711477, "alt_km": 428.0106041292065, "timestamp": "2025-12-17T04:57:43.203426+00:00", "meta": {"OBJECT_NAME": "STARLINK-35953", "OBJECT_ID": "2025-271W", "EPOCH": "2025-12-16T23:23:55.817376", "MEAN_MOTION": 15.47636222, "ECCENTRICITY": 5.065e-05, "INCLINATION": 53.1595, "RA_OF_ASC_NODE": 166.9051, "ARG_OF_PERICENTER": 38.6708, "MEAN_ANOMALY": 321.4336, "EPHEMERIS_TYPE": 0, "CLASSIFICATION_TYPE": "U", "NORAD_CAT_ID": 66637, "ELEMENT_SET_NO": 999, "REV_AT_EPOCH": 486, "BSTAR": -0.0069103152, "MEAN_MOTION_DOT": -0.00347183, "MEAN_MOTION_DDOT": 0}, "tle": {"line1": "1 66637U 25271W   25350.97495159 -.00347183  00000+0 -69103-2 0  9997", "line2": "2 66637  53.1595 166.9051 0000506  38.6708 321.4336 15.47636222  4867"}}, "geometry": {"type": "Point", "coordinates": [6.582148923711477, -25.326759033883473]}}, {"type": "Feature", "properties": {"norad_id": 66638, "name": "STARLINK-35972", "group": "last-30-days", "lat": -29.408112291054568, "lon": 10.787668355369311, "alt_km": 422.8294721561688, "timestamp": "2025-12-17T04:57:43.203435+00:00", "meta": {"OBJECT_NAME": "STARLINK-35972", "OBJECT_ID": "2025-271X", "EPOCH": "2025-12-16T21:50:00.125952", "MEAN_MOTION": 15.49333757, "ECCENTRICITY": 8.017e-05, "INCLINATION": 53.159, "RA_OF_ASC_NODE": 167.2095, "ARG_OF_PERICENTER": 61.187, "MEAN_ANOMALY": 298.9219, "EPHEMERIS_TYPE": 0, "CLASSIFICATION_TYPE": "U", "NORAD_CAT_ID": 66638, "ELEMENT_SET_NO": 999, "REV_AT_EPOCH": 485, "BSTAR": 0.0013839557, "MEAN_MOTION_DOT": 0.00077355, "MEAN_MOTION_DDOT": 0}, "tle": {"line1": "1 66638U 25271X   25350.90972368  .00077355  00000+0  13840-2 0  9999", "line2": "2 66638  53.1590 167.2095 0000801  61.1870 298.9219 15.49333757  4850"}}, "geometry": {"type": "Point", "coordinates": [10.787668355369311, -29.408112291054568]}}]}